IDEFIX & ARIANE 42P R/B 
1 27422U 02021B   26041.43665156  .00000336  00000+0  14431-3 0  9998
2 27422  98.5841 340.3735 0010641 268.4732  91.5232 14.31006322240126
AQUA                    
1 27424U 02022A   26041.52230159  .00001184  00000+0  24644-3 0  9991
2 27424  98.4125   8.4033 0001452  52.0553  58.8843 14.61908645264765
CZ-4B R/B               
1 27432U 02024C   26040.99268076  .00000044  00000+0  45155-4 0  9996
2 27432  98.8902  94.5307 0051148 101.5905 325.8929 14.14542502225324
MIDORI II (ADEOS-II)    
1 27597U 02056A   26041.50164412  .00000378  00000+0  16632-3 0  9997
2 27597  98.7720 359.8002 0002169  80.8482 279.2944 14.29264398206418
H-2A R/B                
1 27601U 02056E   26041.49953506  .00000358  00000+0  14028-3 0  9996
2 27601  98.3151   2.9086 0069084 242.2403 226.8286 14.33741405210216
CZ-4B R/B               
1 28059U 03049C   26041.49510764  .00000563  00000+0  14075-3 0  9992
2 28059  98.6850  35.3397 0047373 315.7944  43.9471 14.54990288182648
CZ-2C R/B               
1 28222U 04012C   26041.14096214  .00049343  00000+0  57539-3 0  9997
2 28222  97.7303 103.8856 0015793  55.3232 304.9510 15.61359870199975
SL-16 R/B               
1 28353U 04021B   26041.09124178  .00000172  00000+0  11444-3 0  9999
2 28353  70.9996 290.4132 0002993  78.7281 281.4178 14.14590483118932
CZ-4B R/B               
1 28415U 04035C   26041.02625893  .00008694  00000+0  31028-3 0  9993
2 28415  97.3548  75.6058 0034078  68.0986 292.3871 15.28548787175682
CZ-2C R/B               
1 28480U 04046B   26041.34948528  .00000150  00000+0  71538-4 0  9995
2 28480  98.1993 318.0316 0138346 235.4912 123.3143 14.26982564104601
ARIANE 5 R/B            
1 28499U 04049H   26041.41534271  .00001090  00000+0  12607-3 0  9997
2 28499  98.2584 208.8605 0085482  79.6995 281.3843 14.85210359141745
CZ-2D R/B               
1 28738U 05024B   26041.49223293  .00036355  00000+0  48929-3 0  9992
2 28738  97.3621  55.6932 0007516 112.1377 248.0677 15.57751649135541
